[{"OBJECT_NAME":"STARLINK-5435","OBJECT_ID":"2022-175AR","EPOCH":"2026-03-09T08:59:40.583328","MEAN_MOTION":15.08817865,"ECCENTRICITY":0.00013284,"INCLINATION":53.2195,"RA_OF_ASC_NODE":45.378,"ARG_OF_PERICENTER":92.0824,"MEAN_ANOMALY":268.0321,"EPHEMERIS_TYPE":0,"CLASSIFICATION_TYPE":"U","NORAD_CAT_ID":54797,"ELEMENT_SET_NO":999,"REV_AT_EPOCH":17987,"BSTAR":3.3609114e-5,"MEAN_MOTION_DOT":2.47e-6,"MEAN_MOTION_DDOT":0},{"OBJECT_NAME":"CZ-6A DEB","OBJECT_ID":"2022-151VT","EPOCH":"2026-03-09T17:17:01.578624","MEAN_MOTION":15.13055612,"ECCENTRICITY":0.00307053,"INCLINATION":98.6048,"RA_OF_ASC_NODE":145.9599,"ARG_OF_PERICENTER":176.0049,"MEAN_ANOMALY":184.143,"EPHEMERIS_TYPE":0,"CLASSIFICATION_TYPE":"U","NORAD_CAT_ID":55202,"ELEMENT_SET_NO":999,"REV_AT_EPOCH":17179,"BSTAR":0.0062201193,"MEAN_MOTION_DOT":0.00112789,"MEAN_MOTION_DDOT":0}]
